{
  "type": "FeatureCollection",
  "features": [
    {
      "type": "Feature",
      "properties": {
        "norad_id": 66590,
        "name": "STARLINK-35429",
        "group": "last-30-days",
        "lat": -41.677177160197694,
        "lon": -1.1831285077696576,
        "alt_km": 446.21328022375565,
        "timestamp": "2025-12-27T17:24:56.103766+00:00",
        "meta_object_name": "STARLINK-35429",
        "meta_object_id": "2025-270C",
        "meta_epoch": "2025-12-27T06:58:10.022592",
        "meta_mean_motion": 15.40777003,
        "meta_eccentricity": 0.000119,
        "meta_inclination": 42.9965,
        "meta_ra_of_asc_node": 108.4882,
        "meta_arg_of_pericenter": 251.5794,
        "meta_mean_anomaly": 108.4933,
        "meta_ephemeris_type": 0,
        "meta_classification_type": "U",
        "meta_norad_cat_id": 66590,
        "meta_element_set_no": 999,
        "meta_rev_at_epoch": 670,
        "meta_bstar": 0.0010575,
        "meta_mean_motion_dot": 0.00044239,
        "meta_mean_motion_ddot": 0,
        "tle_line1": "1 66590U 25270C   25361.29039378  .00044239  00000+0  10575-2 0  9991",
        "tle_line2": "2 66590  42.9965 108.4882 0001190 251.5794 108.4933 15.40777003  6703"
      },
      "geometry": {
        "type": "Point",
        "coordinates": [
          -1.1831285077696576,
          -41.677177160197694
        ]
      }
    },
    {
      "type": "Feature",
      "properties": {
        "norad_id": 66591,
        "name": "STARLINK-36058",
        "group": "last-30-days",
        "lat": -10.516844111795768,
        "lon": 94.2810778846703,
        "alt_km": 443.54561600251054,
        "timestamp": "2025-12-27T17:24:56.103777+00:00",
        "meta_object_name": "STARLINK-36058",
        "meta_object_id": "2025-270D",
        "meta_epoch": "2025-12-26T15:02:03.164928",
        "meta_mean_motion": 15.40738813,
        "meta_eccentricity": 0.00026937,
        "meta_inclination": 43.0054,
        "meta_ra_of_asc_node": 112.1064,
        "meta_arg_of_pericenter": 284.3087,
        "meta_mean_anomaly": 75.747,
        "meta_ephemeris_type": 0,
        "meta_classification_type": "U",
        "meta_norad_cat_id": 66591,
        "meta_element_set_no": 999,
        "meta_rev_at_epoch": 649,
        "meta_bstar": 0.0011610165,
        "meta_mean_motion_dot": 0.0004857,
        "meta_mean_motion_ddot": 0,
        "tle_line1": "1 66591U 25270D   25360.62642552  .00048570  00000+0  11610-2 0  9995",
        "tle_line2": "2 66591  43.0054 112.1064 0002693 284.3087  75.7470 15.40738813  6491"
      },
      "geometry": {
        "type": "Point",
        "coordinates": [
          94.2810778846703,
          -10.516844111795768
        ]
      }
    },
    {
      "type": "Feature",
      "properties": {
        "norad_id": 66592,
        "name": "STARLINK-36066",
        "group": "last-30-days",
        "lat": 35.79049838613319,
        "lon": -124.37514472202783,
        "alt_km": 438.7910907489004,
        "timestamp": "2025-12-27T17:24:56.103787+00:00",
        "meta_object_name": "STARLINK-36066",
        "meta_object_id": "2025-270E",
        "meta_epoch": "2025-12-26T08:13:21.289728",
        "meta_mean_motion": 15.40749213,
        "meta_eccentricity": 0.0001723,
        "meta_inclination": 43.0012,
        "meta_ra_of_asc_node": 114.282,
        "meta_arg_of_pericenter": 268.5662,
        "meta_mean_anomaly": 91.4997,
        "meta_ephemeris_type": 0,
        "meta_classification_type": "U",
        "meta_norad_cat_id": 66592,
        "meta_element_set_no": 999,
        "meta_rev_at_epoch": 634,
        "meta_bstar": 0.0013745,
        "meta_mean_motion_dot": 0.00057643,
        "meta_mean_motion_ddot": 0,
        "tle_line1": "1 66592U 25270E   25360.34260752  .00057643  00000+0  13745-2 0  9995",
        "tle_line2": "2 66592  43.0012 114.2820 0001723 268.5662  91.4997 15.40749213  6344"
      },
      "geometry": {
        "type": "Point",
        "coordinates": [
          -124.37514472202783,
          35.79049838613319
        ]
      }
    },
    {
      "type": "Feature",
      "properties": {
        "norad_id": 66593,
        "name": "STARLINK-36031",
        "group": "last-30-days",
        "lat": -18.485249559298246,
        "lon": -52.8782364083483,
        "alt_km": 446.5778711131061,
        "timestamp": "2025-12-27T17:24:56.103797+00:00",
        "meta_object_name": "STARLINK-36031",
        "meta_object_id": "2025-270F",
        "meta_epoch": "2025-12-26T17:10:54.853824",
        "meta_mean_motion": 15.40744951,
        "meta_eccentricity": 0.00017656,
        "meta_inclination": 43.0007,
        "meta_ra_of_asc_node": 111.9193,
        "meta_arg_of_pericenter": 34.9432,
        "meta_mean_anomaly": 325.154,
        "meta_ephemeris_type": 0,
        "meta_classification_type": "U",
        "meta_norad_cat_id": 66593,
        "meta_element_set_no": 999,
        "meta_rev_at_epoch": 650,
        "meta_bstar": 0.0012375744,
        "meta_mean_motion_dot": 0.00051823,
        "meta_mean_motion_ddot": 0,
        "tle_line1": "1 66593U 25270F   25360.71591266  .00051823  00000+0  12376-2 0  9997",
        "tle_line2": "2 66593  43.0007 111.9193 0001765  34.9432 325.1540 15.40744951  6505"
      },
      "geometry": {
        "type": "Point",
        "coordinates": [
          -52.8782364083483,
          -18.485249559298246
        ]
      }
    },
    {
      "type": "Feature",
      "properties": {
        "norad_id": 66594,
        "name": "STARLINK-36032",
        "group": "last-30-days",
        "lat": -33.0336375490002,
        "lon": 61.60697142268925,
        "alt_km": 445.76314046946936,
        "timestamp": "2025-12-27T17:24:56.103807+00:00",
        "meta_object_name": "STARLINK-36032",
        "meta_object_id": "2025-270G",
        "meta_epoch": "2025-12-27T00:31:51.156768",
        "meta_mean_motion": 15.40705976,
        "meta_eccentricity": 0.00015814,
        "meta_inclination": 42.9991,
        "meta_ra_of_asc_node": 109.9145,
        "meta_arg_of_pericenter": 273.7996,
        "meta_mean_anomaly": 86.2679,
        "meta_ephemeris_type": 0,
        "meta_classification_type": "U",
        "meta_norad_cat_id": 66594,
        "meta_element_set_no": 999,
        "meta_rev_at_epoch": 636,
        "meta_bstar": 0.0012136761,
        "meta_mean_motion_dot": 0.00050743,
        "meta_mean_motion_ddot": 0,
        "tle_line1": "1 66594U 25270G   25361.02211987  .00050743  00000+0  12137-2 0  9997",
        "tle_line2": "2 66594  42.9991 109.9145 0001581 273.7996  86.2679 15.40705976  6360"
      },
      "geometry": {
        "type": "Point",
        "coordinates": [
          61.60697142268925,
          -33.0336375490002
        ]
      }
    },
    {
      "type": "Feature",
      "properties": {
        "norad_id": 66595,
        "name": "STARLINK-35711",
        "group": "last-30-days",
        "lat": 22.404181504726402,
        "lon": 131.9071539153227,
        "alt_km": 440.4774466939043,
        "timestamp": "2025-12-27T17:24:56.103817+00:00",
        "meta_object_name": "STARLINK-35711",
        "meta_object_id": "2025-270H",
        "meta_epoch": "2025-12-27T07:56:02.130144",
        "meta_mean_motion": 15.40753752,
        "meta_eccentricity": 0.0001901,
        "meta_inclination": 42.9986,
        "meta_ra_of_asc_node": 107.9259,
        "meta_arg_of_pericenter": 289.0198,
        "meta_mean_anomaly": 71.0453,
        "meta_ephemeris_type": 0,
        "meta_classification_type": "U",
        "meta_norad_cat_id": 66595,
        "meta_element_set_no": 999,
        "meta_rev_at_epoch": 671,
        "meta_bstar": 0.0014572,
        "meta_mean_motion_dot": 0.00061168,
        "meta_mean_motion_ddot": 0,
        "tle_line1": "1 66595U 25270H   25361.33058021  .00061168  00000+0  14572-2 0  9998",
        "tle_line2": "2 66595  42.9986 107.9259 0001901 289.0198  71.0453 15.40753752  6715"
      },
      "geometry": {
        "type": "Point",
        "coordinates": [
          131.9071539153227,
          22.404181504726402
        ]
      }
    },
    {
      "type": "Feature",
      "properties": {
        "norad_id": 66596,
        "name": "STARLINK-35811",
        "group": "last-30-days",
        "lat": 42.73378077154868,
        "lon": -156.1343265370577,
        "alt_km": 437.9231719810614,
        "timestamp": "2025-12-27T17:24:56.103827+00:00",
        "meta_object_name": "STARLINK-35811",
        "meta_object_id": "2025-270J",
        "meta_epoch": "2025-12-27T07:40:06.026880",
        "meta_mean_motion": 15.40747359,
        "meta_eccentricity": 0.0001596,
        "meta_inclination": 42.9991,
        "meta_ra_of_asc_node": 108.7131,
        "meta_arg_of_pericenter": 248.0542,
        "meta_mean_anomaly": 112.0145,
        "meta_ephemeris_type": 0,
        "meta_classification_type": "U",
        "meta_norad_cat_id": 66596,
        "meta_element_set_no": 999,
        "meta_rev_at_epoch": 670,
        "meta_bstar": 0.0018151,
        "meta_mean_motion_dot": 0.00076402,
        "meta_mean_motion_ddot": 0,
        "tle_line1": "1 66596U 25270J   25361.31951420  .00076402  00000+0  18151-2 0  9996",
        "tle_line2": "2 66596  42.9991 108.7131 0001596 248.0542 112.0145 15.40747359  6707"
      },
      "geometry": {
        "type": "Point",
        "coordinates": [
          -156.1343265370577,
          42.73378077154868
        ]
      }
    }
  ]
}